{
  "type": "FeatureCollection",
  "features": [
    {
      "type": "Feature",
      "properties": {
        "norad_id": 34088,
        "name": "IRIDIUM 33 DEB",
        "group": "iridium-33-debris",
        "lat": 4.867202264130163,
        "lon": -156.41785236675202,
        "alt_km": 590.3161916673134,
        "timestamp": "2025-12-27T14:26:30.906206+00:00",
        "meta_object_name": "IRIDIUM 33 DEB",
        "meta_object_id": "1997-051CX",
        "meta_epoch": "2025-12-27T02:38:55.251744",
        "meta_mean_motion": 14.92046916,
        "meta_eccentricity": 0.00072155,
        "meta_inclination": 86.3846,
        "meta_ra_of_asc_node": 24.1166,
        "meta_arg_of_pericenter": 132.7862,
        "meta_mean_anomaly": 284.4811,
        "meta_ephemeris_type": 0,
        "meta_classification_type": "U",
        "meta_norad_cat_id": 34088,
        "meta_element_set_no": 999,
        "meta_rev_at_epoch": 88956,
        "meta_bstar": 0.0029255965,
        "meta_mean_motion_dot": 0.0002981,
        "meta_mean_motion_ddot": 0,
        "tle_line1": "1 34088U 97051CX  25361.11036171  .00029810  00000+0  29256-2 0  9997",
        "tle_line2": "2 34088  86.3846  24.1166 0007215 132.7862 284.4811 14.92046916889560"
      },
      "geometry": {
        "type": "Point",
        "coordinates": [
          -156.41785236675202,
          4.867202264130163
        ]
      }
    },
    {
      "type": "Feature",
      "properties": {
        "norad_id": 34091,
        "name": "IRIDIUM 33 DEB",
        "group": "iridium-33-debris",
        "lat": -40.6591614818063,
        "lon": -116.82752310059549,
        "alt_km": 604.064812006206,
        "timestamp": "2025-12-27T14:26:30.906216+00:00",
        "meta_object_name": "IRIDIUM 33 DEB",
        "meta_object_id": "1997-051DA",
        "meta_epoch": "2025-12-27T03:43:50.479104",
        "meta_mean_motion": 14.82901423,
        "meta_eccentricity": 0.00343023,
        "meta_inclination": 86.3407,
        "meta_ra_of_asc_node": 60.2263,
        "meta_arg_of_pericenter": 241.6734,
        "meta_mean_anomaly": 118.1028,
        "meta_ephemeris_type": 0,
        "meta_classification_type": "U",
        "meta_norad_cat_id": 34091,
        "meta_element_set_no": 999,
        "meta_rev_at_epoch": 88080,
        "meta_bstar": 0.0057592703,
        "meta_mean_motion_dot": 0.00047447,
        "meta_mean_motion_ddot": 0,
        "tle_line1": "1 34091U 97051DA  25361.15544536  .00047447  00000+0  57593-2 0  9995",
        "tle_line2": "2 34091  86.3407  60.2263 0034302 241.6734 118.1028 14.82901423880804"
      },
      "geometry": {
        "type": "Point",
        "coordinates": [
          -116.82752310059549,
          -40.6591614818063
        ]
      }
    },
    {
      "type": "Feature",
      "properties": {
        "norad_id": 34097,
        "name": "IRIDIUM 33 DEB",
        "group": "iridium-33-debris",
        "lat": 86.09538626711543,
        "lon": 98.06028728754458,
        "alt_km": 810.4593749509559,
        "timestamp": "2025-12-27T14:26:30.906226+00:00",
        "meta_object_name": "IRIDIUM 33 DEB",
        "meta_object_id": "1997-051DG",
        "meta_epoch": "2025-12-26T22:57:25.330752",
        "meta_mean_motion": 14.34897502,
        "meta_eccentricity": 0.0081165,
        "meta_inclination": 86.2009,
        "meta_ra_of_asc_node": 355.1315,
        "meta_arg_of_pericenter": 315.5596,
        "meta_mean_anomaly": 43.9106,
        "meta_ephemeris_type": 0,
        "meta_classification_type": "U",
        "meta_norad_cat_id": 34097,
        "meta_element_set_no": 999,
        "meta_rev_at_epoch": 87323,
        "meta_bstar": 0.0019362,
        "meta_mean_motion_dot": 5.728e-05,
        "meta_mean_motion_ddot": 0,
        "tle_line1": "1 34097U 97051DG  25360.95654318  .00005728  00000+0  19362-2 0  9996",
        "tle_line2": "2 34097  86.2009 355.1315 0081165 315.5596  43.9106 14.34897502873237"
      },
      "geometry": {
        "type": "Point",
        "coordinates": [
          98.06028728754458,
          86.09538626711543
        ]
      }
    },
    {
      "type": "Feature",
      "properties": {
        "norad_id": 34145,
        "name": "IRIDIUM 33 DEB",
        "group": "iridium-33-debris",
        "lat": 40.2430184830055,
        "lon": -30.87866073780598,
        "alt_km": 708.2436737957642,
        "timestamp": "2025-12-27T14:26:30.906237+00:00",
        "meta_object_name": "IRIDIUM 33 DEB",
        "meta_object_id": "1997-051DY",
        "meta_epoch": "2025-12-27T02:36:09.706752",
        "meta_mean_motion": 14.42400271,
        "meta_eccentricity": 0.00553768,
        "meta_inclination": 86.2127,
        "meta_ra_of_asc_node": 326.1271,
        "meta_arg_of_pericenter": 48.2173,
        "meta_mean_anomaly": 312.3739,
        "meta_ephemeris_type": 0,
        "meta_classification_type": "U",
        "meta_norad_cat_id": 34145,
        "meta_element_set_no": 999,
        "meta_rev_at_epoch": 87845,
        "meta_bstar": 0.0016357718,
        "meta_mean_motion_dot": 5.529e-05,
        "meta_mean_motion_ddot": 0,
        "tle_line1": "1 34145U 97051DY  25361.10844568  .00005529  00000+0  16358-2 0  9997",
        "tle_line2": "2 34145  86.2127 326.1271 0055376  48.2173 312.3739 14.42400271878453"
      },
      "geometry": {
        "type": "Point",
        "coordinates": [
          -30.87866073780598,
          40.2430184830055
        ]
      }
    },
    {
      "type": "Feature",
      "properties": {
        "norad_id": 34146,
        "name": "IRIDIUM 33 DEB",
        "group": "iridium-33-debris",
        "lat": 38.56221808984203,
        "lon": -13.795978175025702,
        "alt_km": 738.4668242245234,
        "timestamp": "2025-12-27T14:26:30.906247+00:00",
        "meta_object_name": "IRIDIUM 33 DEB",
        "meta_object_id": "1997-051DZ",
        "meta_epoch": "2025-12-26T05:10:53.931072",
        "meta_mean_motion": 14.49135058,
        "meta_eccentricity": 0.0027049,
        "meta_inclination": 86.2845,
        "meta_ra_of_asc_node": 343.8464,
        "meta_arg_of_pericenter": 175.3009,
        "meta_mean_anomaly": 198.4852,
        "meta_ephemeris_type": 0,
        "meta_classification_type": "U",
        "meta_norad_cat_id": 34146,
        "meta_element_set_no": 999,
        "meta_rev_at_epoch": 88302,
        "meta_bstar": 0.00092782,
        "meta_mean_motion_dot": 3.563e-05,
        "meta_mean_motion_ddot": 0,
        "tle_line1": "1 34146U 97051DZ  25360.21590198  .00003563  00000+0  92782-3 0  9998",
        "tle_line2": "2 34146  86.2845 343.8464 0027049 175.3009 198.4852 14.49135058883020"
      },
      "geometry": {
        "type": "Point",
        "coordinates": [
          -13.795978175025702,
          38.56221808984203
        ]
      }
    },
    {
      "type": "Feature",
      "properties": {
        "norad_id": 34159,
        "name": "IRIDIUM 33 DEB",
        "group": "iridium-33-debris",
        "lat": -86.04688500160766,
        "lon": -70.58174502293458,
        "alt_km": 755.0661600550966,
        "timestamp": "2025-12-27T14:26:30.906257+00:00",
        "meta_object_name": "IRIDIUM 33 DEB",
        "meta_object_id": "1997-051EN",
        "meta_epoch": "2025-12-27T03:10:49.605312",
        "meta_mean_motion": 14.38529458,
        "meta_eccentricity": 0.00263075,
        "meta_inclination": 86.3489,
        "meta_ra_of_asc_node": 42.1028,
        "meta_arg_of_pericenter": 236.8927,
        "meta_mean_anomaly": 122.9746,
        "meta_ephemeris_type": 0,
        "meta_classification_type": "U",
        "meta_norad_cat_id": 34159,
        "meta_element_set_no": 999,
        "meta_rev_at_epoch": 88166,
        "meta_bstar": 0.0004478547,
        "meta_mean_motion_dot": 1.393e-05,
        "meta_mean_motion_ddot": 0,
        "tle_line1": "1 34159U 97051EN  25361.13251858  .00001393  00000+0  44785-3 0  9990",
        "tle_line2": "2 34159  86.3489  42.1028 0026307 236.8927 122.9746 14.38529458881663"
      },
      "geometry": {
        "type": "Point",
        "coordinates": [
          -70.58174502293458,
          -86.04688500160766
        ]
      }
    },
    {
      "type": "Feature",
      "properties": {
        "norad_id": 34350,
        "name": "IRIDIUM 33 DEB",
        "group": "iridium-33-debris",
        "lat": -54.74697955519131,
        "lon": -8.856057451276,
        "alt_km": 761.3535674786408,
        "timestamp": "2025-12-27T14:26:30.906274+00:00",
        "meta_object_name": "IRIDIUM 33 DEB",
        "meta_object_id": "1997-051ES",
        "meta_epoch": "2025-12-26T11:11:35.511072",
        "meta_mean_motion": 14.45418943,
        "meta_eccentricity": 0.0023531,
        "meta_inclination": 86.3274,
        "meta_ra_of_asc_node": 356.8502,
        "meta_arg_of_pericenter": 93.2383,
        "meta_mean_anomaly": 67.9711,
        "meta_ephemeris_type": 0,
        "meta_classification_type": "U",
        "meta_norad_cat_id": 34350,
        "meta_element_set_no": 999,
        "meta_rev_at_epoch": 88491,
        "meta_bstar": 0.00036255,
        "meta_mean_motion_dot": 1.3e-05,
        "meta_mean_motion_ddot": 0,
        "tle_line1": "1 34350U 97051ES  25360.46638323  .00001300  00000+0  36255-3 0  9995",
        "tle_line2": "2 34350  86.3274 356.8502 0023531  93.2383  67.9711 14.45418943884912"
      },
      "geometry": {
        "type": "Point",
        "coordinates": [
          -8.856057451276,
          -54.74697955519131
        ]
      }
    }
  ]
}